STARLINK-31185          
1 58788U 24012B   26068.96471196 -.00000116  00000+0  52798-5 0  9994
2 58788  43.0016 164.0753 0000522 331.1328  28.9495 15.27572210121270
FLOCK 4G-1              
1 62666U 25009BK  26068.75951133  .00013534  00000+0  50654-3 0  9996
2 62666  97.4059 151.3158 0003180 323.1401  36.9619 15.27421081 63725
